start=new Date('2022-11-17T00:00:00.000Z').valueOf();
sats=[{"ECCENTRICITY":"0.00031610","GP_ID":"217973060","LAUNCH_DATE":"2022-01-19","TLE_LINE2":"2 51108  53.2169 317.7013 0003161  27.7804 332.3357 15.08828775 46326","INCLINATION":"53.2169","MEAN_ANOMALY":"332.3357","OBJECT_NAME":"STARLINK-3362","FILE":"3659788","BSTAR":"0.00008159900000","DECAY_DATE":null,"PERIOD":"95.438","OBJECT_TYPE":"PAYLOAD","TIME_SYSTEM":"UTC","CLASSIFICATION_TYPE":"U","APOAPSIS":"541.966","REV_AT_EPOCH":"4632","ELEMENT_SET_NO":"999","ARG_OF_PERICENTER":"27.7804","EPHEMERIS_TYPE":"0","SEMIMAJOR_AXIS":"6917.915","RA_OF_ASC_NODE":"317.7013","CENTER_NAME":"EARTH","SITE":"AFETR","MEAN_MOTION_DOT":"0.00001010","EPOCH":"2022-11-16T10:21:07.504704","MEAN_MOTION":"15.08828775","REF_FRAME":"TEME","TLE_LINE1":"1 51108U 22005E   22320.43133686  .00001010  00000-0  81599-4 0  9995","MEAN_MOTION_DDOT":"0.0000000000000","PERIAPSIS":"537.593","OBJECT_ID":"2022-005E","COUNTRY_CODE":"US","NORAD_CAT_ID":"51108","MEAN_ELEMENT_THEORY":"SGP4","RCS_SIZE":"LARGE"},{"OBJECT_TYPE":"PAYLOAD","PERIOD":"95.438","DECAY_DATE":null,"CLASSIFICATION_TYPE":"U","TIME_SYSTEM":"UTC","GP_ID":"218016048","TLE_LINE2":"2 51109  53.2176 316.3888 0003054  33.0285 327.0897 15.08835188 46139","INCLINATION":"53.2176","LAUNCH_DATE":"2022-01-19","ECCENTRICITY":"0.00030540","FILE":"3660705","BSTAR":"0.00012738000000","OBJECT_NAME":"STARLINK-3358","MEAN_ANOMALY":"327.0897","PERIAPSIS":"537.647","MEAN_MOTION":"15.08835188","TLE_LINE1":"1 51109U 22005F   22320.71933441  .00001739  00000-0  12738-3 0  9990","MEAN_MOTION_DDOT":"0.0000000000000","REF_FRAME":"TEME","MEAN_ELEMENT_THEORY":"SGP4","RCS_SIZE":"LARGE","NORAD_CAT_ID":"51109","COUNTRY_CODE":"US","OBJECT_ID":"2022-005F","EPHEMERIS_TYPE":"0","ARG_OF_PERICENTER":"33.0285","ELEMENT_SET_NO":"999","SEMIMAJOR_AXIS":"6917.895","REV_AT_EPOCH":"4613","APOAPSIS":"541.873","EPOCH":"2022-11-16T17:15:50.493024","RA_OF_ASC_NODE":"316.3888","MEAN_MOTION_DOT":"0.00001739","CENTER_NAME":"EARTH","SITE":"AFETR"},{"ELEMENT_SET_NO":"999","ARG_OF_PERICENTER":"33.5929","EPHEMERIS_TYPE":"0","SEMIMAJOR_AXIS":"6917.898","APOAPSIS":"541.642","REV_AT_EPOCH":"4636","EPOCH":"2022-11-16T16:32:04.218144","RA_OF_ASC_NODE":"316.5462","SITE":"AFETR","CENTER_NAME":"EARTH","MEAN_MOTION_DOT":"-0.00000310","PERIAPSIS":"537.885","MEAN_MOTION":"15.08834085","REF_FRAME":"TEME","MEAN_MOTION_DDOT":"0.0000000000000","TLE_LINE1":"1 51110U 22005G   22320.68893771 -.00000310  00000-0 -13773-5 0  9997","MEAN_ELEMENT_THEORY":"SGP4","RCS_SIZE":"LARGE","OBJECT_ID":"2022-005G","COUNTRY_CODE":"US","NORAD_CAT_ID":"51110","GP_ID":"218016801","TLE_LINE2":"2 51110  53.2178 316.5462 0002716  33.5929 326.5235 15.08834085 46367","LAUNCH_DATE":"2022-01-19","INCLINATION":"53.2178","ECCENTRICITY":"0.00027160","FILE":"3660705","BSTAR":"-0.00000137730000","MEAN_ANOMALY":"326.5235","OBJECT_NAME":"STARLINK-3344","PERIOD":"95.438","OBJECT_TYPE":"PAYLOAD","DECAY_DATE":null,"TIME_SYSTEM":"UTC","CLASSIFICATION_TYPE":"U"},{"PERIAPSIS":"538.061","REF_FRAME":"TEME","MEAN_MOTION_DDOT":"0.0000000000000","TLE_LINE1":"1 51111U 22005H   22320.72941174  .00000207  00000-0  31147-4 0  9991","MEAN_MOTION":"15.08833506","RCS_SIZE":"LARGE","MEAN_ELEMENT_THEORY":"SGP4","OBJECT_ID":"2022-005H","COUNTRY_CODE":"US","NORAD_CAT_ID":"51111","SEMIMAJOR_AXIS":"6917.900","ELEMENT_SET_NO":"999","ARG_OF_PERICENTER":"34.6738","EPHEMERIS_TYPE":"0","APOAPSIS":"541.469","REV_AT_EPOCH":"4636","EPOCH":"2022-11-16T17:30:21.174336","CENTER_NAME":"EARTH","SITE":"AFETR","MEAN_MOTION_DOT":"0.00000207","RA_OF_ASC_NODE":"316.3616","PERIOD":"95.438","OBJECT_TYPE":"PAYLOAD","DECAY_DATE":null,"TIME_SYSTEM":"UTC","CLASSIFICATION_TYPE":"U","LAUNCH_DATE":"2022-01-19","TLE_LINE2":"2 51111  53.2169 316.3616 0002463  34.6738 325.4414 15.08833506 46360","INCLINATION":"53.2169","GP_ID":"218017047","ECCENTRICITY":"0.00024630","BSTAR":"0.00003114700000","FILE":"3660705","MEAN_ANOMALY":"325.4414","OBJECT_NAME":"STARLINK-3173"},{"ELEMENT_SET_NO":"999","ARG_OF_PERICENTER":"28.2164","EPHEMERIS_TYPE":"0","SEMIMAJOR_AXIS":"6917.879","APOAPSIS":"541.862","REV_AT_EPOCH":"4636","EPOCH":"2022-11-16T16:26:46.063968","RA_OF_ASC_NODE":"316.5672","CENTER_NAME":"EARTH","SITE":"AFETR","MEAN_MOTION_DOT":"0.00002975","PERIAPSIS":"537.627","MEAN_MOTION":"15.08840368","REF_FRAME":"TEME","TLE_LINE1":"1 51112U 22005J   22320.68525537  .00002975  00000-0  20498-3 0  9998","MEAN_MOTION_DDOT":"0.0000000000000","MEAN_ELEMENT_THEORY":"SGP4","RCS_SIZE":"LARGE","COUNTRY_CODE":"US","OBJECT_ID":"2022-005J","NORAD_CAT_ID":"51112","GP_ID":"218016301","TLE_LINE2":"2 51112  53.2155 316.5672 0003061  28.2164 331.8994 15.08840368 46365","LAUNCH_DATE":"2022-01-19","INCLINATION":"53.2155","ECCENTRICITY":"0.00030610","FILE":"3660705","BSTAR":"0.00020498000000","MEAN_ANOMALY":"331.8994","OBJECT_NAME":"STARLINK-3374","PERIOD":"95.438","OBJECT_TYPE":"PAYLOAD","DECAY_DATE":null,"TIME_SYSTEM":"UTC","CLASSIFICATION_TYPE":"U"},{"REV_AT_EPOCH":"4637","APOAPSIS":"541.491","EPHEMERIS_TYPE":"0","ELEMENT_SET_NO":"999","ARG_OF_PERICENTER":"36.6298","SEMIMAJOR_AXIS":"6917.878","RA_OF_ASC_NODE":"316.0000","MEAN_MOTION_DOT":"0.00000767","CENTER_NAME":"EARTH","SITE":"AFETR","EPOCH":"2022-11-16T19:21:37.858752","MEAN_MOTION":"15.08840625","TLE_LINE1":"1 51113U 22005K   22320.80668818  .00000767  00000-0  66285-4 0  9995","MEAN_MOTION_DDOT":"0.0000000000000","REF_FRAME":"TEME","PERIAPSIS":"537.996","OBJECT_ID":"2022-005K","COUNTRY_CODE":"US","NORAD_CAT_ID":"51113","MEAN_ELEMENT_THEORY":"SGP4","RCS_SIZE":"LARGE","ECCENTRICITY":"0.00025260","GP_ID":"218016549","LAUNCH_DATE":"2022-01-19","TLE_LINE2":"2 51113  53.2172 316.0000 0002526  36.6298 323.4866 15.08840625 46373","INCLINATION":"53.2172","OBJECT_NAME":"STARLINK-3372","MEAN_ANOMALY":"323.4866","FILE":"3660705","BSTAR":"0.00006628500000","DECAY_DATE":null,"OBJECT_TYPE":"PAYLOAD","PERIOD":"95.438","CLASSIFICATION_TYPE":"U","TIME_SYSTEM":"UTC"},{"MEAN_ANOMALY":"326.9876","OBJECT_NAME":"STARLINK-3375","BSTAR":"0.00005324000000","FILE":"3660705","ECCENTRICITY":"0.00027870","INCLINATION":"53.2177","TLE_LINE2":"2 51114  53.2177 316.5325 0002787  33.1291 326.9876 15.08837933 46364","LAUNCH_DATE":"2022-01-19","GP_ID":"218017302","TIME_SYSTEM":"UTC","CLASSIFICATION_TYPE":"U","DECAY_DATE":null,"PERIOD":"95.438","OBJECT_TYPE":"PAYLOAD","SITE":"AFETR","CENTER_NAME":"EARTH","MEAN_MOTION_DOT":"0.00000559","RA_OF_ASC_NODE":"316.5325","EPOCH":"2022-11-16T16:37:22.165824","APOAPSIS":"541.680","REV_AT_EPOCH":"4636","SEMIMAJOR_AXIS":"6917.887","ARG_OF_PERICENTER":"33.1291","ELEMENT_SET_NO":"999","EPHEMERIS_TYPE":"0","COUNTRY_CODE":"US","OBJECT_ID":"2022-005L","NORAD_CAT_ID":"51114","RCS_SIZE":"LARGE","MEAN_ELEMENT_THEORY":"SGP4","REF_FRAME":"TEME","MEAN_MOTION_DDOT":"0.0000000000000","TLE_LINE1":"1 51114U 22005L   22320.69261766  .00000559  00000-0  53240-4 0  9990","MEAN_MOTION":"15.08837933","PERIAPSIS":"537.824"},{"TIME_SYSTEM":"UTC","CLASSIFICATION_TYPE":"U","DECAY_DATE":null,"PERIOD":"95.437","OBJECT_TYPE":"PAYLOAD","MEAN_ANOMALY":"326.2082","OBJECT_NAME":"STARLINK-3397","FILE":"3660705","BSTAR":"0.00003801300000","ECCENTRICITY":"0.00023280","GP_ID":"218017548","TLE_LINE2":"2 51115  53.2172 316.3288 0002328  33.9059 326.2082 15.08848826 46362","INCLINATION":"53.2172","LAUNCH_DATE":"2022-01-19","NORAD_CAT_ID":"51115","COUNTRY_CODE":"US","OBJECT_ID":"2022-005M","MEAN_ELEMENT_THEORY":"SGP4","RCS_SIZE":"LARGE","MEAN_MOTION":"15.08848826","REF_FRAME":"TEME","MEAN_MOTION_DDOT":"0.0000000000000","TLE_LINE1":"1 51115U 22005M   22320.73308198  .00000317  00000-0  38013-4 0  9990","PERIAPSIS":"538.108","RA_OF_ASC_NODE":"316.3288","SITE":"AFETR","CENTER_NAME":"EARTH","MEAN_MOTION_DOT":"0.00000317","EPOCH":"2022-11-16T17:35:38.283072","APOAPSIS":"541.329","REV_AT_EPOCH":"4636","ELEMENT_SET_NO":"999","ARG_OF_PERICENTER":"33.9059","EPHEMERIS_TYPE":"0","SEMIMAJOR_AXIS":"6917.853"},{"NORAD_CAT_ID":"51116","COUNTRY_CODE":"US","OBJECT_ID":"2022-005N","MEAN_ELEMENT_THEORY":"SGP4","RCS_SIZE":"LARGE","MEAN_MOTION":"15.08835012","REF_FRAME":"TEME","MEAN_MOTION_DDOT":"0.0000000000000","TLE_LINE1":"1 51116U 22005N   22320.41660713  .00000706  00000-0  62498-4 0  9996","PERIAPSIS":"537.911","RA_OF_ASC_NODE":"317.7587","SITE":"AFETR","CENTER_NAME":"EARTH","MEAN_MOTION_DOT":"0.00000706","EPOCH":"2022-11-16T09:59:54.856032","APOAPSIS":"541.610","REV_AT_EPOCH":"4631","ELEMENT_SET_NO":"999","ARG_OF_PERICENTER":"25.0753","EPHEMERIS_TYPE":"0","SEMIMAJOR_AXIS":"6917.896","TIME_SYSTEM":"UTC","CLASSIFICATION_TYPE":"U","DECAY_DATE":null,"PERIOD":"95.438","OBJECT_TYPE":"PAYLOAD","MEAN_ANOMALY":"335.0369","OBJECT_NAME":"STARLINK-3243","FILE":"3659788","BSTAR":"0.00006249800000","ECCENTRICITY":"0.00026730","GP_ID":"217973061","LAUNCH_DATE":"2022-01-19","TLE_LINE2":"2 51116  53.2185 317.7587 0002673  25.0753 335.0369 15.08835012 46314","INCLINATION":"53.2185"},{"GP_ID":"218016049","TLE_LINE2":"2 51117  53.2182 316.1126 0002901  33.0229 327.0944 15.08842158 46370","INCLINATION":"53.2182","LAUNCH_DATE":"2022-01-19","ECCENTRICITY":"0.00029010","FILE":"3660705","BSTAR":"0.00015609000000","MEAN_ANOMALY":"327.0944","OBJECT_NAME":"STARLINK-3391","PERIOD":"95.437","OBJECT_TYPE":"PAYLOAD","DECAY_DATE":null,"TIME_SYSTEM":"UTC","CLASSIFICATION_TYPE":"U","ARG_OF_PERICENTER":"33.0229","ELEMENT_SET_NO":"999","EPHEMERIS_TYPE":"0","SEMIMAJOR_AXIS":"6917.874","APOAPSIS":"541.746","REV_AT_EPOCH":"4637","EPOCH":"2022-11-16T18:49:50.915712","RA_OF_ASC_NODE":"316.1126","SITE":"AFETR","CENTER_NAME":"EARTH","MEAN_MOTION_DOT":"0.00002197","PERIAPSIS":"537.732","MEAN_MOTION":"15.08842158","REF_FRAME":"TEME","MEAN_MOTION_DDOT":"0.0000000000000","TLE_LINE1":"1 51117U 22005P   22320.78461708  .00002197  00000-0  15609-3 0  9997","MEAN_ELEMENT_THEORY":"SGP4","RCS_SIZE":"LARGE","COUNTRY_CODE":"US","OBJECT_ID":"2022-005P","NORAD_CAT_ID":"51117"}];
